1 41966U 17008U   20178.84127092  .00000850  00000-0  35476-4 0  9995
2 41966  97.3645 246.2661 0006177 254.7023 105.3533 15.26359757186851
1 41966U 17008U   20179.16905825  .00000941  00000-0  38989-4 0  9992
2 41966  97.3645 246.5892 0006190 253.3047 106.7512 15.26360942186902
1 41966U 17008U   20179.43128836  .00000902  00000-0  37454-4 0  9994
2 41966  97.3645 246.8478 0006176 252.0035 108.0531 15.26361171186947
1 41966U 17008U   20179.82463347  .00000831  00000-0  34726-4 0  9996
2 41966  97.3645 247.2356 0006199 250.3282 109.7288 15.26361397187002
1 41966U 17008U   20180.15242071  .00000836  00000-0  34917-4 0  9990
2 41966  97.3645 247.5587 0006213 248.8676 111.1899 15.26362011187051
1 41966U 17008U   20180.74243770  .00000834  00000-0  34858-4 0  9994
2 41966  97.3645 248.1404 0006236 246.2109 113.8476 15.26362965187142
1 41966U 17008U   20181.13578195  .00000832  00000-0  34762-4 0  9992
2 41966  97.3644 248.5281 0006264 244.4749 115.5842 15.26363653187207
1 41966U 17008U   20182.11914203  .00000817  00000-0  34180-4 0  9992
2 41966  97.3643 249.4976 0006330 240.0659 119.9951 15.26365324187355
1 41966U 17008U   20182.44692842  .00000842  00000-0  35162-4 0  9999
2 41966  97.3644 249.8207 0006350 238.5619 121.4999 15.26366061187402
1 41966U 17008U   20182.90582928  .00000813  00000-0  34058-4 0  9994
2 41966  97.3643 250.2731 0006379 236.5709 123.4920 15.26366733187477
1 41966U 17008U   20183.16805812  .00000829  00000-0  34650-4 0  9998
2 41966  97.3643 250.5316 0006395 235.5004 124.5631 15.26367341187516
1 41966U 17008U   20183.49584346  .00000937  00000-0  38826-4 0  9999
2 41966  97.3644 250.8548 0006418 234.1076 125.9567 15.26368725187562
1 41966U 17008U   20183.82362885  .00000994  00000-0  40984-4 0  9999
2 41966  97.3643 251.1779 0006432 232.5658 127.4996 15.26369792187619
1 41966U 17008U   20184.15141382  .00001124  00000-0  45997-4 0  9998
2 41966  97.3643 251.5011 0006456 231.2553 128.8110 15.26371347187665
1 41966U 17008U   20184.74142712  .00001116  00000-0  45681-4 0  9992
2 41966  97.3643 252.0827 0006500 228.6876 131.3804 15.26372625187753
1 41966U 17008U   20185.20032620  .00001128  00000-0  46133-4 0  9996
2 41966  97.3643 252.5351 0006538 226.7944 133.2750 15.26373652187826
1 41966U 17008U   20185.85589586  .00001045  00000-0  42966-4 0  9993
2 41966  97.3642 253.1814 0006590 224.0268 136.0446 15.26374633187928
1 41966U 17008U   20186.18368048  .00001056  00000-0  43359-4 0  9997
2 41966  97.3642 253.5045 0006619 222.7164 137.3561 15.26375396187974
1 41966U 17008U   20186.44590797  .00001051  00000-0  43178-4 0  9998
2 41966  97.3643 253.7630 0006639 221.5904 138.4830 15.26375966188018
1 41966U 17008U   20186.83924918  .00001011  00000-0  41649-4 0  9994
2 41966  97.3642 254.1508 0006674 219.9707 140.1041 15.26376617188071
1 41966U 17008U   20187.42925987  .00001134  00000-0  46386-4 0  9996
2 41966  97.3642 254.7325 0006724 217.5696 142.5073 15.26378773188167
1 41966U 17008U   20187.82260078  .00001046  00000-0  42990-4 0  9992
2 41966  97.3642 255.1203 0006754 216.0069 144.0716 15.26379061188227
1 41966U 17008U   20188.41261104  .00001078  00000-0  44201-4 0  9991
2 41966  97.3642 255.7019 0006812 213.5812 146.4996 15.26380604188312
1 41966U 17008U   20188.74039454  .00001018  00000-0  41914-4 0  9990
2 41966  97.3642 256.0250 0006843 212.2558 147.8263 15.26380977188360
1 41966U 17008U   20189.46151772  .00000960  00000-0  39693-4 0  9994
2 41966  97.3641 256.7359 0006912 209.3464 150.7388 15.26382134188476
1 41966U 17008U   20189.85485723  .00000910  00000-0  37770-4 0  9992
2 41966  97.3641 257.1237 0006959 207.8879 152.1988 15.26382697188533
1 41966U 17008U   20190.44486604  .00000910  00000-0  37767-4 0  9994
2 41966  97.3641 257.7053 0007015 205.6987 154.3904 15.26383946188625
1 41966U 17008U   20190.90376053  .00001051  00000-0  43168-4 0  9990
2 41966  97.3640 258.1576 0007066 203.8449 156.2464 15.26385968188693
1 41966U 17008U   20191.10042966  .00001072  00000-0  43969-4 0  9998
2 41966  97.3640 258.3516 0007084 203.1264 156.9657 15.26386591188725
1 41966U 17008U   20191.42821148  .00001105  00000-0  45228-4 0  9997
2 41966  97.3640 258.6747 0007119 201.9207 158.1728 15.26387556188776
1 41966U 17008U   20192.41155691  .00001054  00000-0  43291-4 0  9991
2 41966  97.3639 259.6441 0007221 198.1031 161.9952 15.26389429188921
1 41966U 17008U   20192.93600717  .00001037  00000-0  42636-4 0  9995
2 41966  97.3639 260.1611 0007277 196.1765 163.9242 15.26390506189002
1 41966U 17008U   20193.46045711  .00001045  00000-0  42928-4 0  9994
2 41966  97.3638 260.6780 0007339 194.2154 165.8880 15.26391700189087
1 41966U 17008U   20193.91935064  .00001002  00000-0  41266-4 0  9990
2 41966  97.3638 261.1304 0007392 192.5415 167.5641 15.26392441189150
1 41966U 17008U   20194.83713697  .00000954  00000-0  39433-4 0  9996
2 41966  97.3637 262.0351 0007485 189.1937 170.9166 15.26394059189297
1 41966U 17008U   20195.16491779  .00000915  00000-0  37909-4 0  9990
2 41966  97.3637 262.3582 0007524 188.0076 172.1044 15.26394418189346
1 41966U 17008U   20195.42714215  .00000921  00000-0  38145-4 0  9992
2 41966  97.3637 262.6168 0007560 187.0216 173.0918 15.26394947189385
1 41966U 17008U   20195.82047838  .00000963  00000-0  39783-4 0  9991
2 41966  97.3637 263.0045 0007597 185.5686 174.5469 15.26395969189447
1 41966U 17008U   20196.27937069  .00000953  00000-0  39395-4 0  9993
2 41966  97.3637 263.4569 0007650 183.9478 176.1702 15.26396744189511
1 41966U 17008U   20196.86937472  .00000894  00000-0  37110-4 0  9993
2 41966  97.3636 264.0385 0007713 181.8258 178.2954 15.26397459189602
1 41966U 17008U   20197.45937843  .00000855  00000-0  35622-4 0  9994
2 41966  97.3636 264.6200 0007788 179.7668 180.3575 15.26398254189693
1 41966U 17008U   20197.91826957  .00000890  00000-0  36943-4 0  9994
2 41966  97.3635 265.0724 0007841 178.1795 181.9474 15.26399346189768
1 41966U 17008U   20198.44271672  .00000840  00000-0  35046-4 0  9999
2 41966  97.3635 265.5893 0007905 176.4022 183.7274 15.26399989189845
1 41966U 17008U   20198.96716328  .00000868  00000-0  36091-4 0  9999
2 41966  97.3635 266.1063 0007956 174.5794 185.5533 15.26401137189928
1 41966U 17008U   20199.42605386  .00000870  00000-0  36172-4 0  9995
2 41966  97.3635 266.5587 0008004 172.9950 187.1402 15.26401988189998
1 41966U 17008U   20199.88494411  .00000859  00000-0  35766-4 0  9995
2 41966  97.3635 267.0111 0008050 171.4679 188.6698 15.26402775190068
1 41966U 17008U   20200.14716698  .00000858  00000-0  35732-4 0  9993
2 41966  97.3635 267.2695 0008078 170.5799 189.5593 15.26403282190103
1 41966U 17008U   20200.21272242  .00000919  00000-0  38051-4 0  9998
2 41966  97.3635 267.3342 0008086 170.3526 189.7869 15.26403819190113
1 41966U 17008U   20200.86827840  .00000992  00000-0  40854-4 0  9994
2 41966  97.3635 267.9804 0008156 168.0853 192.0580 15.26405706190212
1 41966U 17008U   20201.19605608  .00001032  00000-0  42389-4 0  9998
2 41966  97.3634 268.3035 0008183 167.0915 193.0535 15.26406718190260
1 41966U 17008U   20201.91716664  .00001033  00000-0  42433-4 0  9994
2 41966  97.3634 269.0143 0008264 164.7212 195.4278 15.26408428190374
1 41966U 17008U   20202.44161028  .00001040  00000-0  42719-4 0  9996
2 41966  97.3634 269.5313 0008315 163.0336 197.1183 15.26409697190456
1 41966U 17008U   20202.83494308  .00000975  00000-0  40216-4 0  9995
2 41966  97.3634 269.9191 0008362 161.7703 198.3837 15.26410165190517
1 41966U 17008U   20203.42494165  .00000972  00000-0  40091-4 0  9990
2 41966  97.3634 270.5007 0008424 159.8123 200.3450 15.26411410190603
1 41966U 17008U   20203.88382923  .00000949  00000-0  39210-4 0  9993
2 41966  97.3633 270.9530 0008469 158.3262 201.8337 15.26412195190672
1 41966U 17008U   20204.21160565  .00001003  00000-0  41271-4 0  9999
2 41966  97.3633 271.2761 0008500 157.2720 202.8897 15.26413227190720
1 41966U 17008U   20204.86715758  .00001090  00000-0  44610-4 0  9996
2 41966  97.3632 271.9223 0008571 155.0997 205.0656 15.26415301190823
1 41966U 17008U   20205.12937821  .00001112  00000-0  45467-4 0  9999
2 41966  97.3632 272.1808 0008585 154.2700 205.8967 15.26416066190869
1 41966U 17008U   20205.45715358  .00001246  00000-0  50590-4 0  9995
2 41966  97.3632 272.5038 0008633 153.3243 206.8441 15.26417646190913
1 41966U 17008U   20206.44048036  .00001186  00000-0  48301-4 0  9997
2 41966  97.3631 273.4730 0008734 150.3255 209.8480 15.26419456191067
1 41966U 17008U   20206.83381022  .00001204  00000-0  49001-4 0  9994
2 41966  97.3631 273.8607 0008761 149.1468 211.0287 15.26420534191122
1 41966U 17008U   20207.16158383  .00001414  00000-0  57033-4 0  9990
2 41966  97.3631 274.1838 0008778 148.1068 212.0704 15.26422842191179
1 41966U 17008U   20207.68602189  .00001535  00000-0  61692-4 0  9995
2 41966  97.3630 274.7007 0008834 146.4393 213.7407 15.26425157191256
1 41966U 17008U   20208.40712334  .00001699  00000-0  67964-4 0  9999
2 41966  97.3630 275.4116 0008882 144.2200 215.9636 15.26428353191362
1 41966U 17008U   20208.73489689  .00001621  00000-0  64963-4 0  9990
2 41966  97.3630 275.7347 0008904 143.1969 216.9882 15.26428876191416
1 41966U 17008U   20208.86600641  .00001582  00000-0  63482-4 0  9998
2 41966  97.3630 275.8639 0008916 142.8584 217.3273 15.26428967191435
1 41966U 17008U   20209.45599799  .00001471  00000-0  59230-4 0  9998
2 41966  97.3629 276.4455 0008968 141.1373 219.0512 15.26430154191527
1 41966U 17008U   20209.84932518  .00001431  00000-0  57669-4 0  9991
2 41966  97.3629 276.8331 0008998 139.9611 220.2293 15.26431177191589
1 41966U 17008U   20210.17709760  .00001411  00000-0  56903-4 0  9998
2 41966  97.3628 277.1562 0009020 138.9266 221.2654 15.26432140191639
1 41966U 17008U   20210.43931540  .00001379  00000-0  55662-4 0  9994
2 41966  97.3628 277.4147 0009048 138.1469 222.0463 15.26432764191671
1 41966U 17008U   20211.22596840  .00001283  00000-0  51993-4 0  9999
2 41966  97.3628 278.1901 0009102 135.7466 224.4502 15.26434551191797
